OBJECT_NAME,OBJECT_ID,EPOCH,MEAN_MOTION,ECCENTRICITY,INCLINATION,RA_OF_ASC_NODE,ARG_OF_PERICENTER,MEAN_ANOMALY,EPHEMERIS_TYPE,CLASSIFICATION_TYPE,NORAD_CAT_ID,ELEMENT_SET_NO,REV_AT_EPOCH,BSTAR,MEAN_MOTION_DOT,MEAN_MOTION_DDOT
TIANMU-1 09,2023-101C,2026-06-07T12:00:17.056224,15.29728213,.0003883,97.2542,208.5845,149.3201,210.8267,0,U,57401,999,16016,.24295E-3,.6924E-4,0
TIANMU-1 10,2023-101D,2026-06-07T11:13:25.265856,15.29698684,.0005471,97.2622,209.5934,152.1817,207.9717,0,U,57402,999,16015,.24127E-3,.6871E-4,0
STARLINK-30240,2023-102A,2026-06-06T13:49:17.391936,15.27571418,.0000367,43.0057,106.6207,309.0195,51.0624,0,U,57404,999,15983,.23168E-4,.376E-5,0
STARLINK-30195,2023-102C,2026-06-01T08:47:39.430176,15.26745265,.00010691,43.0040,143.1566,249.1553,110.9184,0,U,57406,999,15895,.82083226E-4,.1943E-4,0
STARLINK-30207,2023-102D,2026-06-07T02:32:30.508224,15.27583711,.000022,43.0071,89.0914,254.8379,105.2449,0,U,57407,999,16009,.2762E-4,.498E-5,0
STARLINK-30205,2023-102E,2026-06-07T02:53:53.943936,15.27626224,.0001781,43.0037,103.8320,272.1958,87.8690,0,U,57408,999,15991,.24731E-3,.6559E-4,0
STARLINK-30222,2023-102F,2026-06-07T03:43:43.225824,15.27574827,.0000997,43.0035,103.2345,275.3189,84.7549,0,U,57409,999,15992,.24908E-5,-.193E-5,0
STARLINK-30172,2023-102G,2026-06-07T03:36:31.229280,15.27578949,.000088,43.0026,104.0422,273.6287,86.4464,0,U,57410,999,15991,.94409E-5,-.2E-7,0
STARLINK-30214,2023-102H,2026-06-06T13:32:35.964960,15.27578777,.0001156,43.0037,106.5397,261.2429,98.8292,0,U,57411,999,15978,.56281E-4,.1287E-4,0
STARLINK-30182,2023-102J,2026-06-06T13:45:32.823648,15.27583075,.000157,43.0059,106.6003,262.2927,97.7747,0,U,57412,999,15983,.35875E-4,.725E-5,0
STARLINK-30191,2023-102K,2026-06-07T08:57:36.874080,15.27550827,.0000332,43.0060,40.1596,299.9170,60.1649,0,U,57413,999,16068,-.10749E-3,-.3215E-4,0
STARLINK-30193,2023-102L,2026-06-07T12:00:04.000320,15.41455235,.0002258,43.0014,100.8799,266.8187,344.3384,0,U,57414,999,581,.19899E-2,.85898E-3,0
STARLINK-30208,2023-102M,2026-06-07T03:47:25.164096,15.27572562,.0001049,43.0038,103.2495,281.4833,78.5900,0,U,57415,999,15987,.18023E-4,.234E-5,0
STARLINK-30224,2023-102N,2026-06-06T13:51:06.636960,15.27578664,.0000621,43.0042,106.6272,285.4080,74.6703,0,U,57416,999,15983,.22035E-5,-.201E-5,0
STARLINK-30043,2023-102P,2026-06-05T14:20:36.553056,15.27580375,.00013964,43.0055,112.1728,272.1661,87.9031,0,U,57417,999,15968,.3433788E-4,.683E-5,0
STARLINK-30221,2023-102Q,2026-06-06T14:35:55.927680,15.27589758,.000157,43.0050,113.6884,263.0599,97.0074,0,U,57418,999,15975,.78489E-4,.1899E-4,0
QIANKUN-1,2023-103B,2026-06-06T12:40:46.757280,16.07654916,.00253788,96.1562,203.1192,147.5754,212.7097,0,U,57422,999,16558,.2626341E-4,.21455E-3,.1862982E-5
2023-104A,2023-104A,2026-06-07T13:11:13.530624,15.34796088,.0008587,97.2696,226.9327,142.3997,217.7848,0,U,57424,999,16056,.33429E-3,.11215E-3,0
2023-104C,2023-104C,2026-06-07T12:39:35.508384,15.29241392,.0011887,97.2621,222.7108,46.0985,314.1235,0,U,57426,999,16031,.50413E-3,.1427E-3,0
STARLINK-30188,2023-105C,2026-06-07T03:59:40.530048,15.27581775,.0001858,43.0028,118.1644,272.1270,87.9369,0,U,57432,999,15919,.74247E-4,.1781E-4,0
STARLINK-30105,2023-105D,2026-06-07T12:26:42.429696,15.27575844,.000154,43.0015,243.5290,280.5950,79.4728,0,U,57433,999,16206,.9946E-5,.11E-6,0
STARLINK-30102,2023-105E,2026-06-07T03:41:52.015200,15.27578545,.0001445,43.0038,114.6560,269.6562,90.4124,0,U,57434,999,15921,.14639E-4,.141E-5,0
STARLINK-30158,2023-105J,2026-06-07T03:45:34.624800,15.27577981,.0001785,43.0010,114.6698,256.7809,103.2843,0,U,57438,999,15926,.17266E-4,.213E-5,0
STARLINK-30160,2023-105M,2026-06-06T14:59:46.658976,15.27581349,.00026077,43.0053,124.3796,267.7264,92.3289,0,U,57441,999,15894,.6648144E-5,-.8E-6,0
STARLINK-30146,2023-105N,2026-06-07T03:51:07.630272,15.27581495,.0001496,43.0023,114.7015,272.7039,87.3641,0,U,57442,999,15932,.37554E-4,.771E-5,0
STARLINK-30197,2023-105P,2026-06-06T14:48:15.360480,15.27599875,.00015862,43.0032,117.5013,271.2405,88.8265,0,U,57443,999,15918,.1255063E-3,.3195E-4,0
STARLINK-30181,2023-105Q,2026-06-06T14:54:56.511360,15.27573784,.00004986,43.0043,120.9399,232.2674,127.8132,0,U,57444,999,15920,.1238376E-5,-.228E-5,0
STARLINK-30215,2023-105R,2026-06-07T04:02:14.092224,15.27575901,.0001076,42.9992,114.7580,271.2097,88.8631,0,U,57445,999,15910,.85745E-5,-.26E-6,0
STARLINK-30162,2023-105S,2026-06-07T03:34:33.687264,15.27575501,.0000919,43.0041,103.5779,271.9754,88.0992,0,U,57446,999,15939,-.75982E-6,-.283E-5,0
STARLINK-30178,2023-105T,2026-06-07T03:56:41.038368,15.27576491,.0001134,43.0039,114.7294,272.6318,87.4404,0,U,57447,999,15926,.36431E-4,.74E-5,0
