TIANMU-1 09             
1 57401U 23101C   26158.50019741  .00006924  00000+0  24295-3 0  9998
2 57401  97.2542 208.5845 0003883 149.3201 210.8267 15.29728213160162
TIANMU-1 10             
1 57402U 23101D   26158.46765354  .00006871  00000+0  24127-3 0  9997
2 57402  97.2622 209.5934 0005471 152.1817 207.9717 15.29698684160156
STARLINK-30240          
1 57404U 23102A   26157.57589574  .00000376  00000+0  23168-4 0  9998
2 57404  43.0057 106.6207 0000367 309.0195  51.0624 15.27571418159831
STARLINK-30195          
1 57406U 23102C   26152.36642859  .00001943  00000+0  82083-4 0  9990
2 57406  43.0040 143.1566 0001069 249.1553 110.9184 15.26745265158951
STARLINK-30207          
1 57407U 23102D   26158.10590866  .00000498  00000+0  27620-4 0  9999
2 57407  43.0071  89.0914 0000220 254.8379 105.2449 15.27583711160094
STARLINK-30205          
1 57408U 23102E   26158.12076324  .00006559  00000+0  24731-3 0  9993
2 57408  43.0037 103.8320 0001781 272.1958  87.8690 15.27626224159911
STARLINK-30222          
1 57409U 23102F   26158.15536141 -.00000193  00000+0  24908-5 0  9992
2 57409  43.0035 103.2345 0000997 275.3189  84.7549 15.27574827159921
STARLINK-30172          
1 57410U 23102G   26158.15036145 -.00000002  00000+0  94409-5 0  9995
2 57410  43.0026 104.0422 0000880 273.6287  86.4464 15.27578949159912
STARLINK-30214          
1 57411U 23102H   26157.56430515  .00001287  00000+0  56281-4 0  9999
2 57411  43.0037 106.5397 0001156 261.2429  98.8292 15.27578777159781
STARLINK-30182          
1 57412U 23102J   26157.57329657  .00000725  00000+0  35875-4 0  9997
2 57412  43.0059 106.6003 0001570 262.2927  97.7747 15.27583075159831
STARLINK-30191          
1 57413U 23102K   26158.37334345 -.00003215  00000+0 -10749-3 0  9998
2 57413  43.0060  40.1596 0000332 299.9170  60.1649 15.27550827160684
STARLINK-30193          
1 57414U 23102L   26158.50004630  .00085898  00000+0  19899-2 0  9994
2 57414  43.0014 100.8799 0002258 266.8187 344.3384 15.41455235  5812
STARLINK-30208          
1 57415U 23102M   26158.15793014  .00000234  00000+0  18023-4 0  9998
2 57415  43.0038 103.2495 0001049 281.4833  78.5900 15.27572562159870
STARLINK-30224          
1 57416U 23102N   26157.57716015 -.00000201  00000+0  22035-5 0  9994
2 57416  43.0042 106.6272 0000621 285.4080  74.6703 15.27578664159832
STARLINK-30043          
1 57417U 23102P   26156.59764529  .00000683  00000+0  34338-4 0  9990
2 57417  43.0055 112.1728 0001396 272.1661  87.9031 15.27580375159689
STARLINK-30221          
1 57418U 23102Q   26157.60828620  .00001899  00000+0  78489-4 0  9992
2 57418  43.0050 113.6884 0001570 263.0599  97.0074 15.27589758159758
QIANKUN-1               
1 57422U 23103B   26157.52831895  .00021455  18630-5  26263-4 0  9994
2 57422  96.1562 203.1192 0025378 147.5754 212.7097 16.07654916165585
2023-104A               
1 57424U 23104A   26158.54946216  .00011215  00000+0  33429-3 0  9994
2 57424  97.2696 226.9327 0008587 142.3997 217.7848 15.34796088160563
2023-104C               
1 57426U 23104C   26158.52749431  .00014270  00000+0  50413-3 0  9990
2 57426  97.2621 222.7108 0011887  46.0985 314.1235 15.29241392160310
STARLINK-30188          
1 57432U 23105C   26158.16644132  .00001781  00000+0  74247-4 0  9995
2 57432  43.0028 118.1644 0001858 272.1270  87.9369 15.27581775159193
STARLINK-30105          
1 57433U 23105D   26158.51854664  .00000011  00000+0  99460-5 0  9998
2 57433  43.0015 243.5290 0001540 280.5950  79.4728 15.27575844162061
STARLINK-30102          
1 57434U 23105E   26158.15407425  .00000141  00000+0  14639-4 0  9996
2 57434  43.0038 114.6560 0001445 269.6562  90.4124 15.27578545159213
STARLINK-30158          
1 57438U 23105J   26158.15665075  .00000213  00000+0  17266-4 0  9996
2 57438  43.0010 114.6698 0001785 256.7809 103.2843 15.27577981159266
STARLINK-30160          
1 57441U 23105M   26157.62484559 -.00000080  00000+0  66481-5 0  9994
2 57441  43.0053 124.3796 0002607 267.7264  92.3289 15.27581349158944
STARLINK-30146          
1 57442U 23105N   26158.16050498  .00000771  00000+0  37554-4 0  9990
2 57442  43.0023 114.7015 0001496 272.7039  87.3641 15.27581495159321
STARLINK-30197          
1 57443U 23105P   26157.61684445  .00003195  00000+0  12551-3 0  9997
2 57443  43.0032 117.5013 0001586 271.2405  88.8265 15.27599875159185
STARLINK-30181          
1 57444U 23105Q   26157.62148740 -.00000228  00000+0  12384-5 0  9993
2 57444  43.0043 120.9399 0000498 232.2674 127.8132 15.27573784159200
STARLINK-30215          
1 57445U 23105R   26158.16821866 -.00000026  00000+0  85745-5 0  9998
2 57445  42.9992 114.7580 0001076 271.2097  88.8631 15.27575901159102
STARLINK-30162          
1 57446U 23105S   26158.14900101 -.00000283  00000+0 -75982-6 0  9996
2 57446  43.0041 103.5779 0000919 271.9754  88.0992 15.27575501159397
STARLINK-30178          
1 57447U 23105T   26158.16436387  .00000740  00000+0  36431-4 0  9999
2 57447  43.0039 114.7294 0001134 272.6318  87.4404 15.27576491159261
